{
  "type": "FeatureCollection",
  "features": [
    {
      "type": "Feature",
      "properties": {
        "norad_id": 33835,
        "name": "COSMOS 2251 DEB",
        "group": "cosmos-2251-debris",
        "lat": -31.93205027055621,
        "lon": -82.25334503223638,
        "alt_km": 680.8596931113552,
        "timestamp": "2025-12-19T20:43:00.478521+00:00",
        "meta_object_name": "COSMOS 2251 DEB",
        "meta_object_id": "1993-036CC",
        "meta_epoch": "2025-12-18T18:11:26.319264",
        "meta_mean_motion": 14.62307996,
        "meta_eccentricity": 0.00541953,
        "meta_inclination": 74.0576,
        "meta_ra_of_asc_node": 89.5981,
        "meta_arg_of_pericenter": 141.4092,
        "meta_mean_anomaly": 15.2384,
        "meta_ephemeris_type": 0,
        "meta_classification_type": "U",
        "meta_norad_cat_id": 33835,
        "meta_element_set_no": 999,
        "meta_rev_at_epoch": 88877,
        "meta_bstar": 0.00070685378,
        "meta_mean_motion_dot": 3.615e-05,
        "meta_mean_motion_ddot": 0,
        "tle_line1": "1 33835U 93036CC  25352.75794351  .00003615  00000+0  70685-3 0  9994",
        "tle_line2": "2 33835  74.0576  89.5981 0054195 141.4092  15.2384 14.62307996888776"
      },
      "geometry": {
        "type": "Point",
        "coordinates": [
          -82.25334503223638,
          -31.93205027055621
        ]
      }
    },
    {
      "type": "Feature",
      "properties": {
        "norad_id": 33836,
        "name": "COSMOS 2251 DEB",
        "group": "cosmos-2251-debris",
        "lat": -36.36507743923263,
        "lon": -127.30576968985739,
        "alt_km": 647.068002281676,
        "timestamp": "2025-12-19T20:43:00.478532+00:00",
        "meta_object_name": "COSMOS 2251 DEB",
        "meta_object_id": "1993-036CD",
        "meta_epoch": "2025-12-19T03:45:32.916672",
        "meta_mean_motion": 14.79727343,
        "meta_eccentricity": 0.00226903,
        "meta_inclination": 73.9974,
        "meta_ra_of_asc_node": 246.2875,
        "meta_arg_of_pericenter": 97.0244,
        "meta_mean_anomaly": 62.8284,
        "meta_ephemeris_type": 0,
        "meta_classification_type": "U",
        "meta_norad_cat_id": 33836,
        "meta_element_set_no": 999,
        "meta_rev_at_epoch": 64183,
        "meta_bstar": 0.00088588181,
        "meta_mean_motion_dot": 6.66e-05,
        "meta_mean_motion_ddot": 0,
        "tle_line1": "1 33836U 93036CD  25353.15663098  .00006660  00000+0  88588-3 0  9997",
        "tle_line2": "2 33836  73.9974 246.2875 0022690  97.0244  62.8284 14.79727343641832"
      },
      "geometry": {
        "type": "Point",
        "coordinates": [
          -127.30576968985739,
          -36.36507743923263
        ]
      }
    },
    {
      "type": "Feature",
      "properties": {
        "norad_id": 33837,
        "name": "COSMOS 2251 DEB",
        "group": "cosmos-2251-debris",
        "lat": -71.76826086822155,
        "lon": -18.31355218764243,
        "alt_km": 705.7518913088379,
        "timestamp": "2025-12-19T20:43:00.478543+00:00",
        "meta_object_name": "COSMOS 2251 DEB",
        "meta_object_id": "1993-036CE",
        "meta_epoch": "2025-12-19T04:32:18.953664",
        "meta_mean_motion": 14.50714376,
        "meta_eccentricity": 0.00359111,
        "meta_inclination": 74.0126,
        "meta_ra_of_asc_node": 43.4559,
        "meta_arg_of_pericenter": 264.145,
        "meta_mean_anomaly": 95.5616,
        "meta_ephemeris_type": 0,
        "meta_classification_type": "U",
        "meta_norad_cat_id": 33837,
        "meta_element_set_no": 999,
        "meta_rev_at_epoch": 88889,
        "meta_bstar": 0.00018310667,
        "meta_mean_motion_dot": 6.97e-06,
        "meta_mean_motion_ddot": 0,
        "tle_line1": "1 33837U 93036CE  25353.18910826  .00000697  00000+0  18311-3 0  9996",
        "tle_line2": "2 33837  74.0126  43.4559 0035911 264.1450  95.5616 14.50714376888898"
      },
      "geometry": {
        "type": "Point",
        "coordinates": [
          -18.31355218764243,
          -71.76826086822155
        ]
      }
    },
    {
      "type": "Feature",
      "properties": {
        "norad_id": 33838,
        "name": "COSMOS 2251 DEB",
        "group": "cosmos-2251-debris",
        "lat": 73.9714868343069,
        "lon": -128.6654389466501,
        "alt_km": 742.4756778198698,
        "timestamp": "2025-12-19T20:43:00.478553+00:00",
        "meta_object_name": "COSMOS 2251 DEB",
        "meta_object_id": "1993-036CF",
        "meta_epoch": "2025-12-18T20:00:12.340224",
        "meta_mean_motion": 14.48380976,
        "meta_eccentricity": 0.00275019,
        "meta_inclination": 74.0361,
        "meta_ra_of_asc_node": 138.4014,
        "meta_arg_of_pericenter": 259.447,
        "meta_mean_anomaly": 224.9911,
        "meta_ephemeris_type": 0,
        "meta_classification_type": "U",
        "meta_norad_cat_id": 33838,
        "meta_element_set_no": 999,
        "meta_rev_at_epoch": 88657,
        "meta_bstar": 0.00031263295,
        "meta_mean_motion_dot": 1.148e-05,
        "meta_mean_motion_ddot": 0,
        "tle_line1": "1 33838U 93036CF  25352.83347616  .00001148  00000+0  31263-3 0  9992",
        "tle_line2": "2 33838  74.0361 138.4014 0027501 259.4470 224.9911 14.48380976886577"
      },
      "geometry": {
        "type": "Point",
        "coordinates": [
          -128.6654389466501,
          73.9714868343069
        ]
      }
    },
    {
      "type": "Feature",
      "properties": {
        "norad_id": 33839,
        "name": "COSMOS 2251 DEB",
        "group": "cosmos-2251-debris",
        "lat": 64.59563270189864,
        "lon": -130.14629553989022,
        "alt_km": 707.9549033995954,
        "timestamp": "2025-12-19T20:43:00.478564+00:00",
        "meta_object_name": "COSMOS 2251 DEB",
        "meta_object_id": "1993-036CG",
        "meta_epoch": "2025-12-19T06:12:07.053408",
        "meta_mean_motion": 14.6443556,
        "meta_eccentricity": 0.00852723,
        "meta_inclination": 74.0376,
        "meta_ra_of_asc_node": 193.9541,
        "meta_arg_of_pericenter": 304.5298,
        "meta_mean_anomaly": 177.6095,
        "meta_ephemeris_type": 0,
        "meta_classification_type": "U",
        "meta_norad_cat_id": 33839,
        "meta_element_set_no": 999,
        "meta_rev_at_epoch": 89675,
        "meta_bstar": 0.00015010066,
        "meta_mean_motion_dot": 8.03e-06,
        "meta_mean_motion_ddot": 0,
        "tle_line1": "1 33839U 93036CG  25353.25841497  .00000803  00000+0  15010-3 0  9995",
        "tle_line2": "2 33839  74.0376 193.9541 0085272 304.5298 177.6095 14.64435560896750"
      },
      "geometry": {
        "type": "Point",
        "coordinates": [
          -130.14629553989022,
          64.59563270189864
        ]
      }
    },
    {
      "type": "Feature",
      "properties": {
        "norad_id": 33841,
        "name": "COSMOS 2251 DEB",
        "group": "cosmos-2251-debris",
        "lat": -18.499138702247134,
        "lon": 90.4222549439566,
        "alt_km": 782.3701262853965,
        "timestamp": "2025-12-19T20:43:00.478575+00:00",
        "meta_object_name": "COSMOS 2251 DEB",
        "meta_object_id": "1993-036CJ",
        "meta_epoch": "2025-12-19T05:28:29.368416",
        "meta_mean_motion": 14.37869571,
        "meta_eccentricity": 0.0020814,
        "meta_inclination": 74.0378,
        "meta_ra_of_asc_node": 266.0959,
        "meta_arg_of_pericenter": 345.3271,
        "meta_mean_anomaly": 167.8966,
        "meta_ephemeris_type": 0,
        "meta_classification_type": "U",
        "meta_norad_cat_id": 33841,
        "meta_element_set_no": 999,
        "meta_rev_at_epoch": 88207,
        "meta_bstar": 0.00016494701,
        "meta_mean_motion_dot": 4.72e-06,
        "meta_mean_motion_ddot": 0,
        "tle_line1": "1 33841U 93036CJ  25353.22811769  .00000472  00000+0  16495-3 0  9994",
        "tle_line2": "2 33841  74.0378 266.0959 0020814 345.3271 167.8966 14.37869571882076"
      },
      "geometry": {
        "type": "Point",
        "coordinates": [
          90.4222549439566,
          -18.499138702247134
        ]
      }
    },
    {
      "type": "Feature",
      "properties": {
        "norad_id": 33842,
        "name": "COSMOS 2251 DEB",
        "group": "cosmos-2251-debris",
        "lat": -35.87320070494066,
        "lon": 38.38028324858912,
        "alt_km": 758.1927803404642,
        "timestamp": "2025-12-19T20:43:00.478585+00:00",
        "meta_object_name": "COSMOS 2251 DEB",
        "meta_object_id": "1993-036CK",
        "meta_epoch": "2025-12-18T23:44:14.076384",
        "meta_mean_motion": 14.42709335,
        "meta_eccentricity": 0.00474563,
        "meta_inclination": 74.0321,
        "meta_ra_of_asc_node": 208.0522,
        "meta_arg_of_pericenter": 314.1286,
        "meta_mean_anomaly": 45.597,
        "meta_ephemeris_type": 0,
        "meta_classification_type": "U",
        "meta_norad_cat_id": 33842,
        "meta_element_set_no": 999,
        "meta_rev_at_epoch": 88427,
        "meta_bstar": 0.00021356387,
        "meta_mean_motion_dot": 6.93e-06,
        "meta_mean_motion_ddot": 0,
        "tle_line1": "1 33842U 93036CK  25352.98905181  .00000693  00000+0  21356-3 0  9996",
        "tle_line2": "2 33842  74.0321 208.0522 0047456 314.1286  45.5970 14.42709335884276"
      },
      "geometry": {
        "type": "Point",
        "coordinates": [
          38.38028324858912,
          -35.87320070494066
        ]
      }
    }
  ]
}